[{"OBJECT_NAME":"STARLINK-34842","OBJECT_ID":"2025-179A","EPOCH":"2026-03-09T16:42:15.213024","MEAN_MOTION":15.05618791,"ECCENTRICITY":6.063e-5,"INCLINATION":97.6023,"RA_OF_ASC_NODE":113.0364,"ARG_OF_PERICENTER":120.466,"MEAN_ANOMALY":239.6626,"EPHEMERIS_TYPE":0,"CLASSIFICATION_TYPE":"U","NORAD_CAT_ID":65235,"ELEMENT_SET_NO":999,"REV_AT_EPOCH":3188,"BSTAR":-0.00041854675,"MEAN_MOTION_DOT":-6.09e-5,"MEAN_MOTION_DDOT":0},{"OBJECT_NAME":"COSMOS 886 DEB","OBJECT_ID":"1976-126BP","EPOCH":"2026-03-09T09:25:45.501600","MEAN_MOTION":13.48223291,"ECCENTRICITY":0.07109258,"INCLINATION":65.7793,"RA_OF_ASC_NODE":49.267,"ARG_OF_PERICENTER":88.0279,"MEAN_ANOMALY":57.007,"EPHEMERIS_TYPE":0,"CLASSIFICATION_TYPE":"U","NORAD_CAT_ID":14502,"ELEMENT_SET_NO":999,"REV_AT_EPOCH":14461,"BSTAR":0.00098756345,"MEAN_MOTION_DOT":2.959e-5,"MEAN_MOTION_DDOT":0}]
